OPSSAT                  
1 99992U 00000A   19351.54519213  .00000000  00000+0  14352-3 0 00018
2 99992  97.4562 172.9964 0014200 276.6703 275.2883 15.15898002    03